ONEWEB-0086             
1 45456U 20020AJ  24093.76247441  .00000484  00000+0  13294-2 0  9997
2 45456  87.9036 181.2274 0001659  91.4026 268.7292 13.11417232197049
ONEWEB-0088             
1 45457U 20020AK  24093.73974079 -.00000384  00000+0 -11195-2 0  9998
2 45457  87.9032 181.2002 0001953  99.9312 260.2036 13.11418834196976
ONEWEB-0102             
1 47258U 20100A   24093.91878384  .00000450  00000+0  12146-2 0  9999
2 47258  87.8991 150.9801 0002106 104.2844 255.8519 13.12444108159105
ONEWEB-0109             
1 47259U 20100B   24093.85048861  .00000270  00000+0  71433-3 0  9997
2 47259  87.8990 150.9571 0001993 104.3486 255.7864 13.12443609158921
ONEWEB-0110             
1 47260U 20100C   24093.72183609 -.00000470  00000+0 -13410-2 0  9999
2 47260  87.8984 150.9920 0001892 104.3570 255.7768 13.12442626159074
ONEWEB-0111             
1 47261U 20100D   24093.90765740  .00000368  00000+0  98825-3 0  9990
2 47261  87.8991 150.9482 0001985 103.0549 257.0801 13.12445294158932
ONEWEB-0114             
1 47262U 20100E   24093.86160835 -.00000129  00000+0 -39457-3 0  9993
2 47262  87.8986 150.9762 0002370 110.5849 249.5534 13.12440400158880
ONEWEB-0117             
1 47263U 20100F   24093.85366012  .00000097  00000+0  23393-3 0  9992
2 47263  87.8989 150.9497 0001997  98.7533 261.3822 13.12443786158893
